#dP2021  1 18 18  0  0.00000000      96 __u+U ITR00 EXT  IAC
## 2141 151200.00000000   900.00000000 59232 0.7500000000000
+  115   C06C07C08C09C10C11C12C13C14C16C19C20C21C22C23C24C25
+        C26C27C28C29C30C32C33C34C35C36C37C38C39C40C43C44C45
+        C46E01E02E03E04E05E07E08E09E11E12E13E14E15E18E19E21
+        E24E25E26E27E30E31E33E36G01G02G03G04G05G06G07G08G09
+        G10G11G12G13G14G15G16G17G18G19G20G21G22G23G24G25G26
+        G27G28G29G30G31G32J01J02J03R01R02R03R04R05R07R08R09
+        R11R12R13R14R15R16R17R18R19R20R21R22R24  0  0  0  0
++         9 10 11 11 10  8  8  9 10  9  8  8  9 10  9 10  8
++         8  8  9  8  7  8 10  9  7  9  8 12 11 10 12  9 10
++        12  8  9  9  8  9  9  8  9  9  8  9  8  8  9 10  7
++         8  8  9  8  8  9  9 10  7  7  8  7  8  8  8  7  8
++         7  8  7  9  7  8  7  9  8  7  7  7  9  9  9  8  7
++         7  7  8  6  7  8  8 11 11  9  7  9  9  9  8  8  7
++         8  9  8  7 10 10  9  7 10 10  8  8  9  0  0  0  0
%c M  cc GPS ccc cccc cccc cccc cccc ccccc ccccc ccccc ccccc
%c cc cc ccc ccc cccc cccc cccc cccc ccccc ccccc ccccc ccccc
%f  0.0000000  0.000000000  0.00000000000  0.000000000000000
%f  0.0000000  0.000000000  0.00000000000  0.000000000000000
%i    0    0    0    0      0      0      0      0         0
%i    0    0    0    0      0      0      0      0         0
/* IAC                                ULTRA-RAPID PREDICTION
/* S/V CLOCKS ARE ALIGNED TO GNSS TIME                      
/* G:C1WC2W R:C1PC2P E:C1XC5X C:C2IC6I J:C1CC2S             
/* PCV:IGS14_2134 OL/AL:FES2004  NONE     YN ORB:CoN CLK:CoN
*  2021 01 19 12 15  0.00000000
PC06  -6048.563035  29657.560170 -28755.751372     17.963482
PC07 -18962.330510  25123.704782  28080.042618   -242.074243
PC08 -19300.545475  37711.699753    581.250475   -912.331647
PC09   6677.347683  37402.176344 -17536.926055    792.930555
PC10  -5119.709255  26801.023735  32286.455758   -101.352711
PC11 -15725.595457 -20651.188017  10258.321340   -896.806806
PC12  -5812.129754 -26249.601128  -7396.794198    739.852263
PC13  -8772.209965  38991.413953 -13780.740375    104.484724
PC14 -21379.520328 -11781.355029  13498.933235    -62.079300
PC16  -4560.303247  30314.540083 -28786.707989   -664.972869
PC19  26742.284541   6297.206915  -4905.222351    696.516931
PC20  14098.378823  14768.240691 -19021.174217   -909.833829
PC21   7643.185240 -14785.902537  22414.838645   -799.519528
PC22  24258.117258  -6003.870812  12443.276077   -849.741242
PC23 -20885.495071  15192.439642 -10583.968050   -880.293304
PC24  -3244.496555 -19318.204904 -19874.211334   -744.393649
PC25 -17569.977145  -1882.083915 -21610.570520   -902.837129
PC26  11151.904159 -24516.029803  -7237.912616    960.757118
PC27  -1805.322626  23229.270199  15332.168620    468.977159
PC28 -14083.405016   7394.065535  22936.201146   -119.889811
PC29  18543.130880  12016.994164 -17043.273361    340.668151
PC30  12147.976873  25098.078600   -753.640443    433.293650
PC32  -7541.242361  14841.408692 -22384.470123   -884.690560
PC33 -26727.625605  -6238.158465   5017.134080   -922.390315
PC34 -12471.402203 -24940.509564   1393.610072   -759.655101
PC35  14006.018707  -7633.381642 -22897.259316   -458.454525
PC36  17341.676352   2648.350463  21720.733489   -773.564793
PC37 -12325.550247  24201.336673   6482.307235   -860.780444
PC38 -17690.338096  38328.384476  -1087.288432    124.824112
PC39  -1166.177047  31398.955346 -28053.282392     27.575509
PC40 -13123.216797  21349.542571  33895.649572    122.808497
PC43 -18539.019675 -12534.698543  16685.915475   -559.013415
PC44   1255.322224 -23239.530665 -15424.755227     -5.480143
PC45  20783.276070 -15299.845453  10582.203724    339.335881
PC46   3862.364793  18770.779456  20301.411989    445.094124
PE01  -4502.001829 -16090.938983 -24432.089147  -1028.024364
PE02   4585.955121  16054.924207  24440.822064    192.155274
PE03  14705.457473  21482.490236 -14102.635511   -389.055596
PE04 -25942.876147 -13774.100834  -3677.017989   -692.024692
PE05  -5334.422854  16689.358872 -23861.215795   -311.646125
PE07  22068.680975  -2205.868335  19606.287286   -489.695144
PE08  26067.305196  13460.573647   3969.149297   6059.746606
PE09 -21893.315795   2363.939680 -19777.332266   5793.980919
PE11 -15395.766910  11147.567161  22688.251263   6446.938730
PE12 -14464.524943 -12047.862268  22856.122913   5399.086596
PE13  15356.873598 -10794.563884 -22875.696545    410.532135
PE14 -11989.413131 -23544.254302  -7778.776348  -1300.091445
PE15  14442.897306  11923.207923 -22906.607202    833.518013
PE18  22993.960846  17914.341675  -7378.007450  -1420.952279
PE19 -12700.452443 -21513.380653  15879.165867    182.258495
PE21  15385.206429 -19724.315688 -15818.652616   -643.710369
PE24 -27162.207838  11456.792295  -2862.907834   -697.798021
PE25 -15558.849885  19711.277607  15684.347990   -524.653727
PE26   7042.212824 -27393.947932  -8708.628784   2247.551905
PE27  26962.934933 -11982.278852   2260.851494     47.904721
PE30  22141.874290   3475.115853  19314.515579   3250.528902
PE31 -22631.680752  -2734.676043 -18880.808507   -477.506769
PE33  -5046.263729 -27589.929039   9482.954970   -464.996539
PE36  -7256.675456  27109.408504   9419.157273    452.176678
PG01 -13796.749187  18828.414953  12106.267402    777.511545
PG02  14460.748379   3586.388814 -21330.816663   -567.677625
PG03 -20253.060575  13102.029866 -11082.424389    -60.313100
PG04 -11615.084794   9858.686267 -21753.259988   -173.914248
PG05  25566.098468  -2115.512260  -7394.822128    -31.406222
PG06   7598.674202  17794.612115 -18109.116948     -4.478163
PG07  -5681.908590  25597.431917   2252.510401     27.377478
PG08 -17157.148353   2610.134186  20198.310263     -7.180104
PG09    -84.739153  18734.162574 -18881.445791   -314.356321
PG10  -8029.179545 -13308.730238  21670.468367    -42.603832
PG11 -13076.309457  11482.561910  19698.747116    -48.731416
PG12  23231.456469  -9916.646976  -8189.757597     10.823277
PG13  19778.015687   8439.896454  15531.949755     87.587351
PG14   5248.448932  14428.945370  21665.231836     87.711455
PG15  16697.066822  -5399.071797  19673.967648   -175.286124
PG16 -25528.668194  -1458.234352  -8254.105311   -267.354968
PG17  13414.480129  22075.688275   6624.826451    382.173324
PG18   4533.477956 -25751.324230   4485.853586    342.309900
PG19  17579.572908  19895.209168  -2032.138054    -49.891346
PG20   4732.994364 -17387.164697  19368.053164    525.088695
PG21 -15779.173272  11180.670249  18762.419358     88.147441
PG22 -24251.815258  10373.081399  -2014.562824   -695.466638
PG23   4334.520310 -16142.771939  20607.838182    116.614028
PG24  14841.958009 -15089.902096  15566.021274      3.466965
PG25  11635.517020 -15906.744930 -17924.238691     62.904194
PG26 -19298.981193  -7048.963162 -17019.272868     32.211063
PG27 -21444.121845  -9871.027140  12372.596155    -59.145192
PG28   8304.671879  13623.047882  21771.786371    627.604499
PG29   1815.201355 -17897.237153 -19564.224474   -278.727034
PG30   2260.282524  23348.342116  12290.788082   -371.368131
PG31  -9621.383113 -15312.598723 -19368.380035    -94.840971
PG32 -15454.574051 -21015.688916   5537.166419     15.067940
PJ01 -29959.680433  15005.272560 -20979.003089   -337.025884
PJ02 -30569.822068  28851.583559   8041.136073      0.877893
PJ03 -24419.734790  25474.120537  28224.043191     -0.173724
PR01   9298.529528  12708.578615 -20073.505223     73.704519
PR02  23804.353633   8702.584695  -2535.151655    463.502394
PR03  21132.669579   -613.412598  14269.153309     29.413414
PR04   6531.128069  -9217.517029  22891.715241     70.607320
PR05 -11703.622602 -12817.504246  18709.563878     64.993074
PR07 -20862.458762    863.678315 -14653.301535    -42.205137
PR08  -6571.620407   9301.726808 -22776.243622    -56.931432
PR09 -14290.461287   -717.799856 -21086.941593     19.416388
PR11 -14328.925010  19329.448088   8467.193892      4.384787
PR12   -197.233310  14080.983193  21297.503014    197.924154
PR13  13871.022569    827.790000  21369.758930    -49.512487
PR14  20086.247078 -13157.890719   8626.054535     60.021323
PR15  14389.811592 -19143.336422  -8756.103184    105.815381
PR16  -1119.360511 -13569.171934 -21566.722551    -10.373012
PR17   9687.142355  -4795.843773 -23086.706626    392.592893
PR18   2593.419424 -20235.620614 -15326.913296     63.681769
PR19  -4839.734569 -25043.518512   -122.343182   -128.538101
PR20 -10923.181530 -14601.437144  17872.721418   -431.475431
PR21  -9279.040174   6029.373493  22992.236297   -181.501235
PR22  -2141.466126  20829.030720  14490.915919    -93.322527
PR24  11527.233468  13727.386703 -18129.700775     28.353548
EOF
